{
  "type": "FeatureCollection",
  "features": [
    {
      "type": "Feature",
      "properties": {
        "norad_id": 66909,
        "name": "SILVERSAT",
        "group": "stations",
        "lat": 46.26122269366774,
        "lon": 158.26644789620588,
        "alt_km": 405.0027297896304,
        "timestamp": "2025-12-20T18:51:30.477057+00:00",
        "meta_object_name": "SILVERSAT",
        "meta_object_id": "1998-067XV",
        "meta_epoch": "2025-12-19T13:13:09.424128",
        "meta_mean_motion": 15.5251652,
        "meta_eccentricity": 0.0003839,
        "meta_inclination": 51.6306,
        "meta_ra_of_asc_node": 108.5226,
        "meta_arg_of_pericenter": 268.696,
        "meta_mean_anomaly": 91.359,
        "meta_ephemeris_type": 0,
        "meta_classification_type": "U",
        "meta_norad_cat_id": 66909,
        "meta_element_set_no": 999,
        "meta_rev_at_epoch": 267,
        "meta_bstar": 0.00079912,
        "meta_mean_motion_dot": 0.00049748,
        "meta_mean_motion_ddot": 0,
        "tle_line1": "1 66909U 98067XV  25353.55080352  .00049748  00000+0  79912-3 0  9998",
        "tle_line2": "2 66909  51.6306 108.5226 0003839 268.6960  91.3590 15.52516520  2671"
      },
      "geometry": {
        "type": "Point",
        "coordinates": [
          158.26644789620588,
          46.26122269366774
        ]
      }
    },
    {
      "type": "Feature",
      "properties": {
        "norad_id": 66910,
        "name": "1998-067XW",
        "group": "stations",
        "lat": 49.844839290071164,
        "lon": 172.24607198571937,
        "alt_km": 405.0328966916022,
        "timestamp": "2025-12-20T18:51:30.477067+00:00",
        "meta_object_name": "1998-067XW",
        "meta_object_id": "1998-067XW",
        "meta_epoch": "2025-12-20T13:53:35.349504",
        "meta_mean_motion": 15.52622364,
        "meta_eccentricity": 0.00042741,
        "meta_inclination": 51.6309,
        "meta_ra_of_asc_node": 103.387,
        "meta_arg_of_pericenter": 249.6033,
        "meta_mean_anomaly": 110.4498,
        "meta_ephemeris_type": 0,
        "meta_classification_type": "U",
        "meta_norad_cat_id": 66910,
        "meta_element_set_no": 999,
        "meta_rev_at_epoch": 283,
        "meta_bstar": 0.00071890575,
        "meta_mean_motion_dot": 0.00044854,
        "meta_mean_motion_ddot": 0,
        "tle_line1": "1 66910U 98067XW  25354.57888136  .00044854  00000+0  71891-3 0  9990",
        "tle_line2": "2 66910  51.6309 103.3870 0004274 249.6033 110.4498 15.52622364  2830"
      },
      "geometry": {
        "type": "Point",
        "coordinates": [
          172.24607198571937,
          49.844839290071164
        ]
      }
    },
    {
      "type": "Feature",
      "properties": {
        "norad_id": 66911,
        "name": "1998-067XX",
        "group": "stations",
        "lat": 51.5904943990515,
        "lon": -165.47470549305018,
        "alt_km": 403.24774640733904,
        "timestamp": "2025-12-20T18:51:30.477077+00:00",
        "meta_object_name": "1998-067XX",
        "meta_object_id": "1998-067XX",
        "meta_epoch": "2025-12-20T12:17:22.048800",
        "meta_mean_motion": 15.53037566,
        "meta_eccentricity": 0.00038557,
        "meta_inclination": 51.631,
        "meta_ra_of_asc_node": 103.6915,
        "meta_arg_of_pericenter": 259.4504,
        "meta_mean_anomaly": 100.6051,
        "meta_ephemeris_type": 0,
        "meta_classification_type": "U",
        "meta_norad_cat_id": 66911,
        "meta_element_set_no": 999,
        "meta_rev_at_epoch": 281,
        "meta_bstar": 0.00075761816,
        "meta_mean_motion_dot": 0.00048031,
        "meta_mean_motion_ddot": 0,
        "tle_line1": "1 66911U 98067XX  25354.51206075  .00048031  00000+0  75762-3 0  9993",
        "tle_line2": "2 66911  51.6310 103.6915 0003855 259.4504 100.6051 15.53037566  2811"
      },
      "geometry": {
        "type": "Point",
        "coordinates": [
          -165.47470549305018,
          51.5904943990515
        ]
      }
    },
    {
      "type": "Feature",
      "properties": {
        "norad_id": 66912,
        "name": "1998-067XY",
        "group": "stations",
        "lat": 29.682885306858687,
        "lon": 129.2803196683864,
        "alt_km": 409.3966334031202,
        "timestamp": "2025-12-20T18:51:30.477087+00:00",
        "meta_object_name": "1998-067XY",
        "meta_object_id": "1998-067XY",
        "meta_epoch": "2025-12-19T14:52:14.043072",
        "meta_mean_motion": 15.51780846,
        "meta_eccentricity": 0.0004012,
        "meta_inclination": 51.6307,
        "meta_ra_of_asc_node": 108.231,
        "meta_arg_of_pericenter": 260.881,
        "meta_mean_anomaly": 99.1725,
        "meta_ephemeris_type": 0,
        "meta_classification_type": "U",
        "meta_norad_cat_id": 66912,
        "meta_element_set_no": 999,
        "meta_rev_at_epoch": 267,
        "meta_bstar": 0.00063264,
        "meta_mean_motion_dot": 0.00038197,
        "meta_mean_motion_ddot": 0,
        "tle_line1": "1 66912U 98067XY  25353.61960698  .00038197  00000+0  63264-3 0  9998",
        "tle_line2": "2 66912  51.6307 108.2310 0004012 260.8810  99.1725 15.51780846  2678"
      },
      "geometry": {
        "type": "Point",
        "coordinates": [
          129.2803196683864,
          29.682885306858687
        ]
      }
    }
  ]
}